GLOBALSTAR M035         
1 25851U 99037A   25192.94444279 -.00000019  00000+0  16885-2 0  9991
2 25851  51.9981 359.7552 0013910  25.0506 138.5472 11.04538826 98997
GLOBALSTAR M032         
1 25852U 99037B   25192.71737478 -.00000093  00000+0 -84717-3 0  9996
2 25852  51.9916 183.7659 0012123 208.4130 151.6010 11.19062180137533
GLOBALSTAR M051         
1 25853U 99037C   25193.52086979 -.00000080  00000+0 -20833-3 0  9995
2 25853  51.9824 339.7785 0000337 170.2793 189.8024 11.42204577135305
GLOBALSTAR M030         
1 25854U 99037D   25193.52518983 -.00000072  00000+0  55159-4 0  9991
2 25854  51.9860 144.2618 0003206  84.3482 275.7700 11.55109020153079
GLOBALSTAR M048         
1 25872U 99041A   25192.64550993 -.00000034  00000+0  96256-3 0  9995
2 25872  51.9374 277.8721 0013615 225.5506 284.5160 11.33857940127759
GLOBALSTAR M026         
1 25873U 99041B   25192.88989973  .00000041  00000+0  38873-2 0  9993
2 25873  52.0004 117.5757 0002193 327.7009  76.2227 11.06843380151225
GLOBALSTAR M043         
1 25874U 99041C   25192.97499838 -.00000102  00000+0 -99241-3 0  9997
2 25874  51.9425  25.7189 0013407 357.6818 155.3166 11.25694805125667
GLOBALSTAR M028         
1 25875U 99041D   25193.16940467 -.00000074  00000+0  17114-3 0  9995
2 25875  51.9616 118.5717 0063364 125.2385 235.4428 12.50584268193333
